[{"OBJECT_NAME":"STARLINK-34207","OBJECT_ID":"2025-124S","EPOCH":"2026-03-09T04:43:42.961728","MEAN_MOTION":15.27587909,"ECCENTRICITY":9.077e-5,"INCLINATION":42.9987,"RA_OF_ASC_NODE":124.6182,"ARG_OF_PERICENTER":246.0271,"MEAN_ANOMALY":114.0486,"EPHEMERIS_TYPE":0,"CLASSIFICATION_TYPE":"U","NORAD_CAT_ID":64333,"ELEMENT_SET_NO":999,"REV_AT_EPOCH":4170,"BSTAR":0.0013169813,"MEAN_MOTION_DOT":0.00036165,"MEAN_MOTION_DDOT":0},{"OBJECT_NAME":"USA 55","OBJECT_ID":"1990-028B","EPOCH":"2026-03-09T23:32:27.967200","MEAN_MOTION":15.43003152,"ECCENTRICITY":0.00579189,"INCLINATION":94.0887,"RA_OF_ASC_NODE":87.6293,"ARG_OF_PERICENTER":152.9949,"MEAN_ANOMALY":207.4341,"EPHEMERIS_TYPE":0,"CLASSIFICATION_TYPE":"U","NORAD_CAT_ID":20547,"ELEMENT_SET_NO":999,"REV_AT_EPOCH":98658,"BSTAR":0.00013659834,"MEAN_MOTION_DOT":6.373e-5,"MEAN_MOTION_DDOT":0}]
